C/2021 B3 (NEOWISE),e,119.4813,67.2854,293.5397,34.48318,0.0048674,0.93733338,3.8182,05/04.0/2023,2000,g 13.5,4.0
# From MPEC 2022-ED3
C/2021 C1 (Rankin),e,143.0449,186.8965,336.2336,8519,0.0000013,0.99959179,0.0000,12/06.9167/2020,2000,g 11.5,4.0
# From MPEC 2021-U31
P/2021 C2 (PANSTARRS),e,21.9354,66.4609,78.7248,9.534807,0.0334762,0.48740140,26.7605,05/04.0/2023,2000,g 12.0,4.0
# From MPEC 2021-N06
C/2021 C3 (Catalina),e,122.1655,181.9241,357.0742,61.93807,0.0020219,0.96327982,1.6395,05/04.0/2023,2000,g 14.0,4.0
# From MPEC 2022-M88
C/2021 C4 (ATLAS),e,132.8533,194.2772,320.1940,187256,0.0000000,0.99997596,0.0000,01/17.0228/2021,2000,g  9.0,4.0
# From MPEC 2023-HD1
C/2021 C5 (PANSTARRS),e,50.7818,323.6809,270.9229,2355,0.0000086,0.99862334,0.0000,02/11.0748/2023,2000,g 12.0,4.0
# From MPEC 2022-YB4
C/2021 C6 (Lemmon),h,11/13.3245/2021,164.6245,332.1764,203.6231,1.001121,3.273510,2000,12.0,4.0
# From MPEC 2022-F14
C/2021 D1 (SWAN),e,31.4270,311.2355,72.2919,100.2658,0.0009817,0.99099951,0.0000,02/27.7428/2021,2000,g 13.0,4.0
# From MPEC 2023-J29
C/2021 D2 (ZTF),h,02/03.9803/2022,83.8148,305.6775,125.0276,1.001701,2.946282,2000,9.0,4.0
# From MPEC 2022-UY9
A/2021 E2,e,167.4884,190.8192,342.3835,224.7247,0.0002926,0.98983299,0.0000,12/10.3660/2020,2000,g 15.0,2.0
# From MPEC 2023-J29
C/2021 E3 (ZTF),h,06/11.8985/2022,112.5497,104.4761,228.8494,1.000851,1.777349,2000,8.5,4.0
# From MPEC 2022-UY9
A/2021 E4,e,116.3610,171.1699,48.2620,590.3458,0.0000687,0.99207924,0.0000,04/25.1725/2022,2000,g 13.5,2.0
# From MPEC 2022-QD9
C/2021 F1 (Lemmon-PANSTARRS),e,107.3263,203.4539,146.8269,229.2161,0.0002840,0.99565578,0.0000,04/06.8374/2022,2000,g 13.5,4.0
# From MPEC 2021-J72
C/2021 G1 (Leonard),e,131.5484,270.6989,107.4521,73.99759,0.0015484,0.95373787,1.0081,05/04.0/2023,2000,g 14.0,4.0
# From MPEC 2023-J29
C/2021 G2 (ATLAS),e,48.4738,221.0966,343.3258,7459,0.0000015,0.99933219,0.0000,09/09.6116/2024,2000,g  5.5,4.0
# From MPEC 2022-X67
C/2021 G3 (PANSTARRS),h,10/18.1779/2021,102.8741,147.4062,10.6012,1.000195,5.180250,2000,10.5,4.0
# From MPEC 2021-Y10
P/2021 HS (PANSTARRS),e,12.1630,262.3817,46.1185,4.194594,0.1147280,0.80985043,72.9408,05/04.0/2023,2000,g 22.0,4.0
# From MPEC 2022-C56
C/2021 J1 (Maury-Attard),e,92.7209,88.3642,147.3213,26.38254,0.0072733,0.93402459,5.8449,05/04.0/2023,2000,g 15.5,4.0
# From MPEC 2023-C45
C/2021 J2 (PANSTARRS),e,156.2131,23.3349,172.0202,117.4615,0.0007742,0.95994392,0.4559,05/04.0/2023,2000,g 12.0,4.0
# From MPEC 2021-S45
P/2021 J3 (ATLAS),e,14.5324,111.1520,126.0105,8.930959,0.0369281,0.44924874,51.6993,05/04.0/2023,2000,g  7.0,4.0
# From MPEC 2022-O08
C/2021 K1 (ATLAS),e,16.2753,140.9063,184.2786,12.67038,0.0218534,0.80279048,15.9481,05/04.0/2023,2000,g 11.0,4.0
# From MPEC 2022-O01
C/2021 K2 (MASTER),h,09/09.4704/2021,100.8601,282.2534,343.3612,1.001090,5.467868,2000,8.0,4.0
# From MPEC 2022-L66
C/2021 K3 (Catalina),h,02/03.1446/2022,134.7830,114.4611,182.0517,1.003374,5.229994,2000,10.0,4.0
# From MPEC 2021-W31
P/2021 L2 (Leonard),e,21.0684,266.6571,51.5102,4.049014,0.1209707,0.52112618,78.4788,05/04.0/2023,2000,g 17.0,4.0
# From MPEC 2023-HD1
C/2021 L3 (Borisov),h,02/14.1122/2022,78.5769,344.9782,91.6122,1.003399,8.457986,2000,10.2,4.0
# From MPEC 2022-TA0
P/2021 N1 (ZTF),e,11.4975,301.1625,21.2257,2.977984,0.1917876,0.67638715,133.5975,05/04.0/2023,2000,g 19.0,4.0
# From MPEC 2023-J29
P/2021 N2 (Fuls),e,13.0614,221.7360,177.4478,6.937843,0.0539346,0.45257022,28.9161,05/04.0/2023,2000,g  9.5,4.0
# From MPEC 2022-YB4
C/2021 N3 (PANSTARRS),e,26.7409,337.4934,304.7613,152.0874,0.0005255,0.96241111,0.5190,05/04.0/2023,2000,g  8.5,4.0
# From MPEC 2022-A21
C/2021 O1 (Nishimura),e,27.5874,41.6200,74.3982,2377,0.0000085,0.99966959,0.0000,08/14.0172/2021,2000,g 10.5,4.0
# From MPEC 2022-L66
C/2021 O3 (PANSTARRS),h,04/21.0511/2022,56.7941,189.0131,299.9694,1.000063,0.287027,2000,10.5,4.0
# From MPEC 2022-CN4
C/2021 P1 (PANSTARRS),e,51.6366,359.6775,40.4617,2520,0.0000078,0.99826422,0.0000,06/02.3747/2022,2000,g 11.0,4.0
# From MPEC 2023-J29
C/2021 P2 (PANSTARRS),e,150.0635,32.0803,76.6959,2599,0.0000074,0.99804950,0.0000,01/22.7460/2023,2000,g  9.0,4.0
# From MPEC 2021-W31
P/2021 P3 (PANSTARRS),e,27.1616,358.2401,334.0943,4.412487,0.1063356,0.33909891,74.8438,05/04.0/2023,2000,g 14.0,4.0
# From MPEC 2023-A50
C/2021 P4 (ATLAS),e,56.3112,348.0906,175.8105,311.2250,0.0001795,0.99652883,0.0000,07/30.3559/2022,2000,g  9.5,4.0
# From MPEC 2023-E68
P/2021 PE20 (ATLAS),e,20.0096,99.6316,210.4659,3.745697,0.1359581,0.67033987,94.6305,05/04.0/2023,2000,g 17.0,4.0
# From MPEC 2023-FK0
C/2021 Q3 (ATLAS),e,77.7617,307.9128,114.1012,75.61655,0.0014989,0.93116797,0.6937,05/04.0/2023,2000,g  8.0,4.0
# From MPEC 2023-BF4
C/2021 Q4 (Fuls),h,06/10.5190/2023,71.4747,183.3326,147.0011,1.003031,7.564856,2000,6.0,4.0
# From MPEC 2022-C56
P/2021 Q5 (ATLAS),e,10.7383,239.7503,180.9235,3.286656,0.1654142,0.62452418,101.1381,05/04.0/2023,2000,g 15.0,4.0
# From MPEC 2023-CD7
C/2021 Q6 (PANSTARRS),e,161.8471,133.5364,140.9546,69923,0.0000001,0.99987545,0.0000,03/23.8436/2024,2000,g  6.0,4.0
# From MPEC 2023-FK0
C/2021 QM45 (PANSTARRS),e,22.8218,354.5907,72.8211,364.1122,0.0001419,0.99238284,0.0000,08/13.4994/2022,2000,g 11.0,4.0
# From MPEC 2022-X67
P/2021 R1 (PANSTARRS),e,5.5190,143.3388,220.3431,8.339147,0.0409281,0.41408322,20.5999,05/04.0/2023,2000,g 11.0,4.0
# From MPEC 2022-X67
C/2021 R2 (PANSTARRS),e,134.4819,16.2969,32.4418,2589,0.0000075,0.99717556,0.0000,12/26.8721/2021,2000,g  7.5,4.0
# From MPEC 2021-W31
P/2021 R3 (PANSTARRS),e,19.9287,304.2015,2.7796,3.772407,0.1345167,0.33110758,95.2370,05/04.0/2023,2000,g 16.0,4.0
# From MPEC 2021-W31
P/2021 R4 (Wierzchos),e,21.0354,321.2621,56.6875,5.621908,0.0739398,0.58601586,41.9197,05/04.0/2023,2000,g 16.0,4.0
# From MPEC 2022-Y15
P/2021 R5 (Rankin),e,7.8546,219.9578,167.4407,4.793811,0.0939037,0.30668327,44.7501,05/04.0/2023,2000,g 12.0,4.0
# From MPEC 2021-W31
P/2021 R6 (Groeller),e,34.9253,176.1169,220.7930,6.280156,0.0626251,0.59342611,34.3755,05/04.0/2023,2000,g 14.5,4.0
# From MPEC 2022-X67
C/2021 R7 (PANSTARRS),e,158.8503,170.1474,140.2815,874.9457,0.0000381,0.99354147,0.0000,04/16.5778/2021,2000,g 10.5,4.0
# From MPEC 2021-Y10
P/2021 R8 (Sheppard),e,2.2034,167.0269,190.8322,3.017838,0.1880010,0.29344993,107.8182,05/04.0/2023,2000,g 18.5,4.0
# From MPEC 2023-J29
C/2021 S1 (ATLAS),h,03/01.1141/2022,52.0717,299.8776,148.1971,1.001995,6.119439,2000,7.0,4.0
# From MPEC 2023-J29
C/2021 S3 (PANSTARRS),h,02/14.7298/2024,58.5334,215.6223,6.8687,1.000093,1.320023,2000,5.5,4.0
# From MPEC 2023-E68
C/2021 S4 (Tsuchinshan),e,17.4799,5.4963,72.8146,164.8716,0.0004656,0.95942224,359.8870,05/04.0/2023,2000,g  6.5,4.0
# From MPEC 2022-OB6
C/2021 T1 (Lemmon),e,140.3543,56.8296,51.5404,1347,0.0000199,0.99772946,0.0000,10/14.1215/2021,2000,g 12.5,4.0
# From MPEC 2023-A50
C/2021 T2 (Fuls),h,06/07.9156/2022,117.5354,223.2324,263.5985,1.000360,1.247691,2000,12.0,4.0
# From MPEC 2023-J29
C/2021 T4 (Lemmon),e,160.7766,257.8820,329.8157,12265,0.0000007,0.99987907,0.0000,07/31.5290/2023,2000,g  7.5,4.0
# From MPEC 2022-ED3
P/2021 U1 (Wierzchos),e,30.5542,246.7743,145.1162,8.522947,0.0396113,0.71296916,22.9701,05/04.0/2023,2000,g 14.5,4.0
# From MPEC 2022-L66
P/2021 U3 (Attard-Maury),e,69.9591,75.0959,335.2444,4.192834,0.1148002,0.54983624,63.8430,05/04.0/2023,2000,g 15.5,4.0
# From MPEC 2021-W31
C/2021 U4 (Leonard),e,152.8817,241.8095,237.3002,44.83341,0.0032832,0.96011624,1.6352,05/04.0/2023,2000,g 17.0,4.0
# From MPEC 2022-WQ9
C/2021 U5 (Catalina),e,39.0495,182.7528,321.4435,216.9248,0.0003085,0.98910955,0.0000,01/26.5802/2022,2000,g 13.0,4.0
# From MPEC 2022-CN4
C/2021 V1 (Rankin),e,71.4540,207.6539,195.1320,609.3369,0.0000655,0.99505368,0.0000,04/30.4375/2022,2000,g 13.0,4.0
# From MPEC 2023-J29
P/2021 V2 (Fuls),e,12.6941,232.2813,259.8314,9.061333,0.0361340,0.61411772,3.7068,05/04.0/2023,2000,g 10.0,4.0
# From MPEC 2023-G31
C/2021 X1 (Maury-Attard),h,05/27.4350/2023,140.1201,10.5864,334.6213,1.000787,3.233646,2000,7.0,4.0
# From MPEC 2023-A50
A/2021 X2,h,07/08.0533/2022,137.1613,228.8220,193.2820,1.000876,2.994316,2000,16.0,2.0
# From MPEC 2023-J29
C/2021 Y1 (ATLAS),h,04/30.7088/2023,77.1908,244.7707,245.8182,1.000860,2.032395,2000,7.0,4.0
# From MPEC 2022-YN2
C/2022 A1 (Sarneczky),e,116.5083,285.5250,201.2243,351.5683,0.0001495,0.99643587,0.0000,01/31.1319/2022,2000,g 18.0,4.0
# From MPEC 2023-J29
C/2022 A2 (PANSTARRS),h,02/18.2716/2023,108.1467,171.5798,88.3695,1.000382,1.735316,2000,9.5,4.0
# From MPEC 2023-J29
C/2022 A3 (Lemmon-ATLAS),e,88.3457,325.4823,234.8469,915.4009,0.0000356,0.99595427,0.0000,09/28.8441/2023,2000,g  8.0,4.0
# From MPEC 2022-K19
P/2022 B1 (Wierzchos),e,10.9899,148.8418,325.4750,5.466395,0.0771174,0.65311573,33.3638,05/04.0/2023,2000,g 16.5,4.0
# From MPEC 2022-YB4
A/2022 B3,e,132.0506,286.1822,150.6869,860.3581,0.0000391,0.99570100,0.0000,01/17.5335/2022,2000,g 16.5,2.0
# From MPEC 2022-GA9
C/2022 B4 (Bok),e,20.0437,340.6478,152.9386,381.1643,0.0001324,0.99638258,0.0000,01/29.9077/2022,2000,g 21.0,4.0
# From MPEC 2023-J29
P/2022 BV9 (Lemmon),e,11.9334,337.3015,16.2318,4.361031,0.1082232,0.23475640,99.7862,05/04.0/2023,2000,g  9.5,4.0
# From MPEC 2023-J29
P/2022 C1 (PANSTARRS),e,4.7622,113.1372,9.3354,7.222661,0.0507760,0.44827544,27.7061,05/04.0/2023,2000,g 12.0,4.0
# From MPEC 2022-OB6
P/2022 C2 (PANSTARRS),e,9.9803,135.2646,89.2815,6.042277,0.0663595,0.44222205,17.9546,05/04.0/2023,2000,g 12.5,4.0
# From MPEC 2022-OB6
P/2022 C3 (PANSTARRS),e,12.8169,139.0499,93.9258,9.637495,0.0329426,0.54611511,10.1118,05/04.0/2023,2000,g 11.5,4.0
# From MPEC 2022-K19
P/2022 D1 (PANSTARRS),e,44.0742,47.9582,88.6852,7.402275,0.0489391,0.54723368,30.0475,05/04.0/2023,2000,g 12.5,4.0
# From MPEC 2022-K19
C/2022 D2 (Kowalski),e,22.6550,312.4528,177.7873,367.6712,0.0001398,0.99577172,0.0000,03/27.5823/2022,2000,g 17.0,4.0
# From MPEC 2023-J29
C/2022 E2 (ATLAS),h,09/13.9696/2024,137.1337,125.3664,41.6871,1.001000,3.666907,2000,5.0,4.0
# From MPEC 2023-J29
